OSCAR 7 (AO-7)          
1 07530U 74089B   18097.48853689 -.00000026  00000-0  11333-3 0  9992
2 07530 101.6796  65.8907 0012444 111.1767  36.7758 12.53631872985737
UOSAT 2 (UO-11)         
1 14781U 84021B   18097.15448840  .00000067  00000-0  14442-4 0  9997
2 14781  97.6580 136.3673 0007480 324.5814  35.4902 14.82992600833911
LUSAT (LO-19)           
1 20442U 90005G   18097.40620742  .00000013  00000-0  20856-4 0  9995
2 20442  98.6048  36.3541 0011882   4.9950 355.1350 14.32891560473755
ITAMSAT (IO-26)         
1 22826U 93061D   18096.88639408  .00000010  00000-0  21428-4 0  9991
2 22826  98.8502  71.7832 0008872 177.4886 182.6342 14.30357329279560
RADIO ROSTO (RS-15)     
1 23439U 94085A   18096.51385640 -.00000050  00000-0 -21274-3 0  9999
2 23439  64.8140 104.7488 0159667 195.0639 328.1700 11.27566875958488
JAS-2 (FO-29)           
1 24278U 96046B   18097.53776118 -.00000045  00000-0 -64967-5 0  9999
2 24278  98.5238 306.0034 0349437 294.3166  62.1858 13.53082495 68685
TECHSAT 1B (GO-32)      
1 25397U 98043D   18096.90611148  .00000002  00000-0  19762-4 0  9995
2 25397  98.6440  38.5472 0000832 165.9709 194.1493 14.23642851 25361
ISS (ZARYA)             
1 25544U 98067A   18097.53054398  .00002169  00000-0  39867-4 0  9997
2 25544  51.6445  10.9516 0001673 314.5703  29.7941 15.54208808107527
PCSAT (NO-44)           
1 26931U 01043C   18096.90045954 -.00000037  00000-0  17762-4 0  9997
2 26931  67.0520  53.3491 0006906 282.6075  77.4253 14.30499589862285
SAUDISAT 1C (SO-50)     
1 27607U 02058C   18096.56906633 -.00000012  00000-0  19078-4 0  9992
2 27607  64.5550 308.9452 0057007 344.9324  15.0077 14.75436026822266
CUTE-1 (CO-55)          
1 27844U 03031E   18096.96733381  .00000045  00000-0  40215-4 0  9991
2 27844  98.6891 106.6681 0009131 211.8248 148.2379 14.22103936766033
CUBESAT XI-IV (CO-57)   
1 27848U 03031J   18096.90686223  .00000032  00000-0  34313-4 0  9999
2 27848  98.6978 106.9822 0008868 222.8974 137.1513 14.21709093765904
MOZHAYETS 4 (RS-22)     
1 27939U 03042A   18097.56701481  .00000070  00000-0  21080-4 0  9998
2 27939  97.9783 238.5718 0013249  18.7416  47.2340 14.66671826776462
CUBESAT XI-V (CO-58)    
1 28895U 05043F   18096.89961827  .00000135  00000-0  34684-4 0  9996
2 28895  97.8985 251.2838 0015503 296.6853  63.2762 14.63526895663215
CUTE-1.7+APD II (CO-65) 
1 32785U 08021C   18097.51203227  .00000194  00000-0  26758-4 0  9999
2 32785  97.5510 113.0529 0011514 273.2928  86.6972 14.88089709538660
DELFI-C3 (DO-64)        
1 32789U 08021G   18097.21696526  .00001098  00000-0  79618-4 0  9995
2 32789  97.5203 153.8043 0012931 172.5177 187.6245 15.05884561541104
SEEDS II (CO-66)        
1 32791U 08021J   18097.11145269  .00000240  00000-0  30014-4 0  9995
2 32791  97.5415 117.8657 0011863 253.1012 106.8906 14.90506483538920
YUBILEINY (RS-30)       
1 32953U 08025A   18097.53497898  .00000034  00000-0  17273-3 0  9995
2 32953  82.5036  56.6109 0019562   7.7155 352.4222 12.43082608447990
KKS-1 (KISEKI)          
1 33499U 09002H   18096.89765385  .00000101  00000-0  22966-4 0  9995
2 33499  98.3537 276.3576 0009777 152.8658 207.3062 14.75310898494245
SWISSCUBE               
1 35932U 09051B   18097.45464241  .00000138  00000-0  42323-4 0  9992
2 35932  98.5343 246.9564 0008755  71.8389 288.3761 14.56139264453146
BEESAT                  
1 35933U 09051C   18096.86856038  .00000108  00000-0  35390-4 0  9999
2 35933  98.5383 247.8589 0007079  85.2352 274.9653 14.56245321453081
ITUPSAT 1               
1 35935U 09051E   18096.88309122  .00000113  00000-0  37073-4 0  9996
2 35935  98.5494 248.1275 0009350  80.1017 280.1234 14.55424878452929
XIWANG-1 (HOPE-1)       
1 36122U 09072B   18097.47985312 -.00000044  00000-0 -50841-5 0  9999
2 36122 100.0805 115.4098 0006781 276.3707  83.6635 13.16343921399344
JUGNU                   
1 37839U 11058B   18096.37679066  .00000319  00000-0  28027-4 0  9999
2 37839  19.9609 112.6901 0018935 174.4829 313.4955 14.12614808335205
SRMSAT                  
1 37841U 11058D   18096.58043147  .00000288  00000-0  12961-4 0  9995
2 37841  19.9711 159.1831 0012097  64.3145  87.4216 14.10602515334769
M-CUBED & EXP-1 PRIME   
1 37855U 11061F   18097.10699645  .00000660  00000-0  42180-4 0  9993
2 37855 101.7240 123.2701 0176887 292.5926  65.6656 15.04242113350963
STRAND-1                
1 39090U 13009E   18097.54788235  .00000006  00000-0  17519-4 0  9994
2 39090  98.5290 304.8246 0009878 141.4560 218.7332 14.35018026267692
SOMP                    
1 39134U 13015E   18096.17769462  .00001066  00000-0  60126-4 0  9998
2 39134  64.8650 359.8134 0020697 219.2802 140.6824 15.18963019273967
BEESAT-3                
1 39135U 13015F   18096.74175198  .00000737  00000-0  47488-4 0  9999
2 39135  64.8709  10.4247 0026407 245.5479 114.2891 15.16519440273420
BEESAT-2                
1 39136U 13015G   18096.75248272  .00000681  00000-0  45284-4 0  9995
2 39136  64.8711  12.9842 0026891 244.5720 115.2623 15.15993303273378
ZACUBE-1 (TSHEPISOSAT)  
1 39417U 13066B   18097.50455176  .00000187  00000-0  29958-4 0  9991
2 39417  97.5947 129.8903 0059787  28.1608 332.2817 14.80903325236338
GOMX 1                  
1 39430U 13066Q   18097.39380486  .00000170  00000-0  39936-4 0  9993
2 39430  97.6922  79.3940 0151172 193.4987 166.2151 14.59048200232839
EAGLE 2                 
1 39436U 13066W   18097.33388948  .00156723  00000-0  12358-2 0  9997
2 39436  97.7124 228.4228 0001472 260.9970  99.1125 15.70943915242191
CUBEBUG-2 (LO-74)       
1 39440U 13066AA  18097.01046179  .00000207  00000-0  35718-4 0  9996
2 39440  97.6061 116.4592 0081987  67.2001 293.7844 14.75637470235425
FUNCUBE-1 (AO-73)       
1 39444U 13066AE  18097.53740778  .00000240  00000-0  36023-4 0  9990
2 39444  97.5957 131.3571 0058809  23.7779 336.6132 14.81673049235191
UWE-3                   
1 39446U 13066AG  18097.01965991  .00000211  00000-0  34731-4 0  9993
2 39446  97.5990 122.5751 0071392  48.8189 311.9150 14.78171474234609
SPROUT                  
1 39770U 14029E   18097.52548121  .00000640  00000-0  78029-4 0  9995
2 39770  97.8729 199.1835 0010778  83.3999 276.8462 14.86751151209869
UNISAT-6                
1 40012U 14033C   18096.72337798  .00000185  00000-0  35115-4 0  9991
2 40012  97.8188 335.6019 0059904  69.9477 290.8167 14.73787639204178
DUCHIFAT-1              
1 40021U 14033M   18097.22309747  .00000314  00000-0  38225-4 0  9999
2 40021  97.9170  15.8135 0014344  55.8810 304.3766 14.90245977206384
FUNCUBE-3 (EO-79)       
1 40025U 14033R   18097.23662288  .00000293  00000-0  37421-4 0  9999
2 40025  97.9073  12.7745 0013845  61.4884 298.7725 14.88670509206237
NUDT-PHONESAT           
1 40900U 15049B   18097.45959812  .00001854  00000-0  86611-4 0  9994
2 40900  97.4433 106.5372 0011741 278.1813  81.8090 15.21011952141169
ZDPS 2A                 
1 40901U 15049C   18097.50013483  .00000791  00000-0  43441-4 0  9999
2 40901  97.4604 104.9536 0012088 285.5885  74.4014 15.16957289140945
ZDPS 2B                 
1 40902U 15049D   18097.46432827  .00000762  00000-0  42193-4 0  9993
2 40902  97.4499 103.0579 0012123 282.4308  77.5568 15.16756434140926
XW-2A                   
1 40903U 15049E   18097.49817482  .00001622  00000-0  42435-4 0  9996
2 40903  97.3924 131.6313 0012569 287.5088  72.4784 15.40210782142921
KAITUO 1A               
1 40904U 15049F   18097.48280892  .00000746  00000-0  43505-4 0  9990
2 40904  97.4593 102.3895 0013087 286.2866 226.0175 15.14947425140797
2015-049G               
1 40905U 15049G   18097.49434571  .00000359  00000-0  23414-4 0  9994
2 40905  97.4591 100.5945 0014164 276.2552  83.7066 15.13908262140725
XW-2C                   
1 40906U 15049H   18097.45510588  .00000596  00000-0  35331-4 0  9998
2 40906  97.4608 102.2470 0013384 275.9748  83.9958 15.15092617140781
XW-2D                   
1 40907U 15049J   18097.48048327  .00000619  00000-0  36414-4 0  9998
2 40907  97.4580 101.9775 0012736 273.5663  86.4112 15.15236186140797
LILACSAT 2              
1 40908U 15049K   18097.46872990  .00000324  00000-0  21711-4 0  9995
2 40908  97.4690 101.4149 0014415 274.6580  85.3005 15.13452424140675
XW-2F                   
1 40910U 15049M   18097.48361687  .00000926  00000-0  51040-4 0  9992
2 40910  97.4586 103.1682 0013427 269.0197  90.9498 15.16379584140730
XW-2B                   
1 40911U 15049N   18097.49543124  .00000606  00000-0  35783-4 0  9993
2 40911  97.4617 102.5028 0012650 274.0520  85.9266 15.15182871140698
KAITUO 1B               
1 40912U 15049P   18097.46739409  .00001053  00000-0  54156-4 0  9996
2 40912  97.4518 105.7993 0013609 256.4593 261.4023 15.18577744140933
TIANWANG 1C (TW-1C)     
1 40926U 15051B   18097.51860260  .00006936  00000-0  13496-3 0  9996
2 40926  97.1919 140.2163 0010502 163.5509 338.5995 15.47841005142377
TIANWANG 1A (TW-1A)     
1 40928U 15051D   18097.51542131  .00002617  00000-0  71383-4 0  9994
2 40928  97.1935 132.8887 0010709 208.9422 283.7616 15.38291289141917
LAPAN-A2 (IO-86)        
1 40931U 15052B   18097.00131158  .00000706  00000-0  94003-5 0  9998
2 40931   6.0018 297.7127 0012827  79.6375 280.5226 14.76571078136467
E-ST@R-II               
1 41459U 16025D   18097.40417252  .00001445  00000-0  79300-4 0  9994
2 41459  98.1433 156.3205 0172515  26.3356 334.6510 15.04198422106781
AAUSAT 4                
1 41460U 16025E   18097.51453499  .00001703  00000-0  92123-4 0  9996
2 41460  98.1368 156.8297 0163214  22.3518 338.4735 15.05539215106857
NUSAT 1 (LO-87)         
1 41557U 16033B   18096.66586911  .00001239  00000-0  47784-4 0  9990
2 41557  97.4380 181.0145 0015115  55.1047 305.1610 15.28148696103235
BEESAT-4                
1 41619U 16040W   18096.73652087  .00001347  00000-0  62137-4 0  9992
2 41619  97.4223 160.8537 0013274 117.8656 242.3926 15.21898210 87225
ALSAT 1N                
1 41789U 16059G   18097.36294784  .00000091  00000-0  26526-4 0  9993
2 41789  98.1258 161.1198 0027135 312.4052  47.4854 14.64139940 81659
CAS-2T & KS-1Q          
1 41847U 16066G   18096.99550226  .00000191  00000-0  38495-4 0  9999
2 41847  98.7565 124.3761 0366967  96.0004 268.3107 14.37875553 74091
NAYIF-1 (EO-88)         
1 42017U 17008BX  18096.93748490  .00001373  00000-0  59289-4 0  9999
2 42017  97.4550 162.4027 0004783 269.5864  90.4825 15.24199798 63215
LILACSAT-1              
1 42725U 98067ME  18097.16518728  .00018012  00000-0  17738-3 0  9994
2 42725  51.6377 359.4588 0003258 332.4598  27.6225 15.66045301 49373
MAX VALIER SAT          
1 42778U 17036P   18097.14005175  .00000871  00000-0  42203-4 0  9994
2 42778  97.4111 158.0095 0011523 324.9423  35.1053 15.21143393 43703
FOX-1B (AO-91)          
1 43017U 17073E   18097.26486299  .00000396  00000-0  36296-4 0  9992
2 43017  97.7037  31.3758 0260982 142.2292 219.7560 14.77962914 20637
FOX-1D (AO-92)          
1 43137U 18004AC  18096.72860368  .00000940  00000-0  43606-4 0  9991
2 43137  97.5412 159.2109 0009379   0.9831 359.1422 15.22542252 12834
